CCSDS_OMM_VERS = 2.0
CREATION_DATE  = 
ORIGINATOR     = 

OBJECT_NAME    = COSMOS 1892
OBJECT_ID      = 1987-088A
CENTER_NAME    = EARTH
REF_FRAME      = TEME
TIME_SYSTEM    = UTC
MEAN_ELEMENT_THEORY = SGP/SGP4

EPOCH          = 2025-10-26T21:01:00.011712
MEAN_MOTION    = 15.89373996
ECCENTRICITY   = .0004592
INCLINATION    = 82.4698
RA_OF_ASC_NODE = 96.3854
ARG_OF_PERICENTER = 331.3543
MEAN_ANOMALY   = 28.7476

EPHEMERIS_TYPE = 0
CLASSIFICATION_TYPE = U
NORAD_CAT_ID   = 18421
ELEMENT_SET_NO = 999
REV_AT_EPOCH   = 8382
BSTAR          = .66938E-3
MEAN_MOTION_DOT = .193286E-2
MEAN_MOTION_DDOT = .12024E-4

CCSDS_OMM_VERS = 2.0
CREATION_DATE  = 
ORIGINATOR     = 

OBJECT_NAME    = SL-14 R/B
OBJECT_ID      = 1988-001B
CENTER_NAME    = EARTH
REF_FRAME      = TEME
TIME_SYSTEM    = UTC
MEAN_ELEMENT_THEORY = SGP/SGP4

EPOCH          = 2025-10-27T03:54:05.092416
MEAN_MOTION    = 14.85349795
ECCENTRICITY   = .0017112
INCLINATION    = 82.5118
RA_OF_ASC_NODE = 320.9666
ARG_OF_PERICENTER = 324.1618
MEAN_ANOMALY   = 35.8449

EPHEMERIS_TYPE = 0
CLASSIFICATION_TYPE = U
NORAD_CAT_ID   = 18749
ELEMENT_SET_NO = 999
REV_AT_EPOCH   = 2220
BSTAR          = .74061551E-4
MEAN_MOTION_DOT = .662E-5
MEAN_MOTION_DDOT = 0

CCSDS_OMM_VERS = 2.0
CREATION_DATE  = 
ORIGINATOR     = 

OBJECT_NAME    = COSMOS 1933
OBJECT_ID      = 1988-020A
CENTER_NAME    = EARTH
REF_FRAME      = TEME
TIME_SYSTEM    = UTC
MEAN_ELEMENT_THEORY = SGP/SGP4

EPOCH          = 2025-10-27T05:52:54.393600
MEAN_MOTION    = 15.16564718
ECCENTRICITY   = .00031372
INCLINATION    = 82.5165
RA_OF_ASC_NODE = 22.7925
ARG_OF_PERICENTER = 314.9394
MEAN_ANOMALY   = 45.1584

EPHEMERIS_TYPE = 0
CLASSIFICATION_TYPE = U
NORAD_CAT_ID   = 18958
ELEMENT_SET_NO = 999
REV_AT_EPOCH   = 2999
BSTAR          = .30132036E-3
MEAN_MOTION_DOT = .5908E-4
MEAN_MOTION_DDOT = 0

CCSDS_OMM_VERS = 2.0
CREATION_DATE  = 
ORIGINATOR     = 

OBJECT_NAME    = SL-3 R/B
OBJECT_ID      = 1988-032B
CENTER_NAME    = EARTH
REF_FRAME      = TEME
TIME_SYSTEM    = UTC
MEAN_ELEMENT_THEORY = SGP/SGP4

EPOCH          = 2025-10-27T06:27:49.423392
MEAN_MOTION    = 15.18014623
ECCENTRICITY   = .00264876
INCLINATION    = 97.5042
RA_OF_ASC_NODE = 279.3465
ARG_OF_PERICENTER = 343.2997
MEAN_ANOMALY   = 16.7362

EPHEMERIS_TYPE = 0
CLASSIFICATION_TYPE = U
NORAD_CAT_ID   = 19046
ELEMENT_SET_NO = 999
REV_AT_EPOCH   = 3185
BSTAR          = .34789957E-3
MEAN_MOTION_DOT = .7072E-4
MEAN_MOTION_DDOT = 0

CCSDS_OMM_VERS = 2.0
CREATION_DATE  = 
ORIGINATOR     = 

OBJECT_NAME    = SL-16 R/B
OBJECT_ID      = 1988-039B
CENTER_NAME    = EARTH
REF_FRAME      = TEME
TIME_SYSTEM    = UTC
MEAN_ELEMENT_THEORY = SGP/SGP4

EPOCH          = 2025-10-27T05:46:37.225632
MEAN_MOTION    = 14.19585424
ECCENTRICITY   = .00221429
INCLINATION    = 71.0164
RA_OF_ASC_NODE = 350.7195
ARG_OF_PERICENTER = 190.9405
MEAN_ANOMALY   = 169.1242

EPHEMERIS_TYPE = 0
CLASSIFICATION_TYPE = U
NORAD_CAT_ID   = 19120
ELEMENT_SET_NO = 999
REV_AT_EPOCH   = 93944
BSTAR          = .9078093E-4
MEAN_MOTION_DOT = .144E-5
MEAN_MOTION_DDOT = 0

CCSDS_OMM_VERS = 2.0
CREATION_DATE  = 
ORIGINATOR     = 

OBJECT_NAME    = COSMOS 1953
OBJECT_ID      = 1988-050A
CENTER_NAME    = EARTH
REF_FRAME      = TEME
TIME_SYSTEM    = UTC
MEAN_ELEMENT_THEORY = SGP/SGP4

EPOCH          = 2025-10-27T05:31:14.892672
MEAN_MOTION    = 15.26193771
ECCENTRICITY   = .00103838
INCLINATION    = 82.5067
RA_OF_ASC_NODE = 292.2305
ARG_OF_PERICENTER = 226.5463
MEAN_ANOMALY   = 133.4912

EPHEMERIS_TYPE = 0
CLASSIFICATION_TYPE = U
NORAD_CAT_ID   = 19210
ELEMENT_SET_NO = 999
REV_AT_EPOCH   = 1741
BSTAR          = .24479611E-3
MEAN_MOTION_DOT = .6371E-4
MEAN_MOTION_DDOT = 0

CCSDS_OMM_VERS = 2.0
CREATION_DATE  = 
ORIGINATOR     = 

OBJECT_NAME    = SL-8 R/B
OBJECT_ID      = 1988-053B
CENTER_NAME    = EARTH
REF_FRAME      = TEME
TIME_SYSTEM    = UTC
MEAN_ELEMENT_THEORY = SGP/SGP4

EPOCH          = 2025-10-27T05:35:52.651392
MEAN_MOTION    = 14.38817512
ECCENTRICITY   = .0020731
INCLINATION    = 74.0493
RA_OF_ASC_NODE = 358.4346
ARG_OF_PERICENTER = 215.3397
MEAN_ANOMALY   = 201.0056

EPHEMERIS_TYPE = 0
CLASSIFICATION_TYPE = U
NORAD_CAT_ID   = 19257
ELEMENT_SET_NO = 999
REV_AT_EPOCH   = 95740
BSTAR          = .13257183E-3
MEAN_MOTION_DOT = .382E-5
MEAN_MOTION_DDOT = 0

CCSDS_OMM_VERS = 2.0
CREATION_DATE  = 
ORIGINATOR     = 

OBJECT_NAME    = COSMOS 1975
OBJECT_ID      = 1988-093A
CENTER_NAME    = EARTH
REF_FRAME      = TEME
TIME_SYSTEM    = UTC
MEAN_ELEMENT_THEORY = SGP/SGP4

EPOCH          = 2025-10-27T03:45:29.927232
MEAN_MOTION    = 15.25340745
ECCENTRICITY   = .00093836
INCLINATION    = 82.5201
RA_OF_ASC_NODE = 251.4198
ARG_OF_PERICENTER = 286.5228
MEAN_ANOMALY   = 73.4979

EPHEMERIS_TYPE = 0
CLASSIFICATION_TYPE = U
NORAD_CAT_ID   = 19573
ELEMENT_SET_NO = 999
REV_AT_EPOCH   = 99902
BSTAR          = .47114168E-3
MEAN_MOTION_DOT = .11925E-3
MEAN_MOTION_DDOT = 0

CCSDS_OMM_VERS = 2.0
CREATION_DATE  = 
ORIGINATOR     = 

OBJECT_NAME    = SL-14 R/B
OBJECT_ID      = 1988-093B
CENTER_NAME    = EARTH
REF_FRAME      = TEME
TIME_SYSTEM    = UTC
MEAN_ELEMENT_THEORY = SGP/SGP4

EPOCH          = 2025-10-27T05:39:15.840864
MEAN_MOTION    = 14.85480981
ECCENTRICITY   = .00220743
INCLINATION    = 82.5321
RA_OF_ASC_NODE = 167.3059
ARG_OF_PERICENTER = 117.6156
MEAN_ANOMALY   = 331.1766

EPHEMERIS_TYPE = 0
CLASSIFICATION_TYPE = U
NORAD_CAT_ID   = 19574
ELEMENT_SET_NO = 999
REV_AT_EPOCH   = 98122
BSTAR          = .71410822E-4
MEAN_MOTION_DOT = .643E-5
MEAN_MOTION_DDOT = 0

CCSDS_OMM_VERS = 2.0
CREATION_DATE  = 
ORIGINATOR     = 

OBJECT_NAME    = SL-16 R/B
OBJECT_ID      = 1988-102B
CENTER_NAME    = EARTH
REF_FRAME      = TEME
TIME_SYSTEM    = UTC
MEAN_ELEMENT_THEORY = SGP/SGP4

EPOCH          = 2025-10-27T02:54:35.470368
MEAN_MOTION    = 14.16127438
ECCENTRICITY   = .0015599
INCLINATION    = 70.9992
RA_OF_ASC_NODE = 72.5286
ARG_OF_PERICENTER = 221.0087
MEAN_ANOMALY   = 138.9864

EPHEMERIS_TYPE = 0
CLASSIFICATION_TYPE = U
NORAD_CAT_ID   = 19650
ELEMENT_SET_NO = 999
REV_AT_EPOCH   = 90798
BSTAR          = .19698692E-3
MEAN_MOTION_DOT = .342E-5
MEAN_MOTION_DDOT = 0

CCSDS_OMM_VERS = 2.0
CREATION_DATE  = 
ORIGINATOR     = 

OBJECT_NAME    = INTERCOSMOS 24
OBJECT_ID      = 1989-080A
CENTER_NAME    = EARTH
REF_FRAME      = TEME
TIME_SYSTEM    = UTC
MEAN_ELEMENT_THEORY = SGP/SGP4

EPOCH          = 2025-10-27T04:26:04.882272
MEAN_MOTION    = 12.59343002
ECCENTRICITY   = .11875365
INCLINATION    = 82.6104
RA_OF_ASC_NODE = 191.2241
ARG_OF_PERICENTER = 242.5542
MEAN_ANOMALY   = 104.9978

EPHEMERIS_TYPE = 0
CLASSIFICATION_TYPE = U
NORAD_CAT_ID   = 20261
ELEMENT_SET_NO = 999
REV_AT_EPOCH   = 64999
BSTAR          = .23620173E-3
MEAN_MOTION_DOT = .795E-5
MEAN_MOTION_DDOT = 0

CCSDS_OMM_VERS = 2.0
CREATION_DATE  = 
ORIGINATOR     = 

OBJECT_NAME    = SL-14 R/B
OBJECT_ID      = 1989-080C
CENTER_NAME    = EARTH
REF_FRAME      = TEME
TIME_SYSTEM    = UTC
MEAN_ELEMENT_THEORY = SGP/SGP4

EPOCH          = 2025-10-27T06:09:26.908416
MEAN_MOTION    = 12.50367814
ECCENTRICITY   = .12314593
INCLINATION    = 82.5903
RA_OF_ASC_NODE = 258.8526
ARG_OF_PERICENTER = 129.7526
MEAN_ANOMALY   = 241.8790

EPHEMERIS_TYPE = 0
CLASSIFICATION_TYPE = U
NORAD_CAT_ID   = 20262
ELEMENT_SET_NO = 999
REV_AT_EPOCH   = 64347
BSTAR          = .79072472E-4
MEAN_MOTION_DOT = .293E-5
MEAN_MOTION_DDOT = 0

