COSMOS 1892             
1 18421U 87088A   25299.87569458  .00193286  12024-4  66938-3 0  9993
2 18421  82.4698  96.3854 0004592 331.3543  28.7476 15.89373996 83827
SL-14 R/B               
1 18749U 88001B   25300.16255894  .00000662  00000+0  74062-4 0  9992
2 18749  82.5118 320.9666 0017112 324.1618  35.8449 14.85349795 22209
COSMOS 1933             
1 18958U 88020A   25300.24507400  .00005908  00000+0  30132-3 0  9994
2 18958  82.5165  22.7925 0003137 314.9394  45.1584 15.16564718 29994
SL-3 R/B                
1 19046U 88032B   25300.26932203  .00007072  00000+0  34790-3 0  9999
2 19046  97.5042 279.3465 0026487 343.2997  16.7362 15.18014623 31852
SL-16 R/B               
1 19120U 88039B   25300.24070863  .00000144  00000+0  90781-4 0  9998
2 19120  71.0164 350.7195 0022142 190.9405 169.1242 14.19585424939440
COSMOS 1953             
1 19210U 88050A   25300.23003348  .00006371  00000+0  24480-3 0  9994
2 19210  82.5067 292.2305 0010383 226.5463 133.4912 15.26193771 17417
SL-8 R/B                
1 19257U 88053B   25300.23324828  .00000382  00000+0  13257-3 0  9993
2 19257  74.0493 358.4346 0020731 215.3397 201.0056 14.38817512957408
COSMOS 1975             
1 19573U 88093A   25300.15659638  .00011925  00000+0  47114-3 0  9993
2 19573  82.5201 251.4198 0009383 286.5228  73.4979 15.25340745999025
SL-14 R/B               
1 19574U 88093B   25300.23560001  .00000643  00000+0  71411-4 0  9991
2 19574  82.5321 167.3059 0022074 117.6156 331.1766 14.85480981981229
SL-16 R/B               
1 19650U 88102B   25300.12124387  .00000342  00000+0  19699-3 0  9993
2 19650  70.9992  72.5286 0015599 221.0087 138.9864 14.16127438907987
INTERCOSMOS 24          
1 20261U 89080A   25300.18477873  .00000795  00000+0  23620-3 0  9997
2 20261  82.6104 191.2241 1187536 242.5542 104.9978 12.59343002649993
SL-14 R/B               
1 20262U 89080C   25300.25656144  .00000293  00000+0  79072-4 0  9992
2 20262  82.5903 258.8526 1231459 129.7526 241.8790 12.50367814643476
